{"type": "FeatureCollection", "features": [ {"type": "Feature", "properties": {"norad_id": 40115, "name": "WORLDVIEW-3 (WV-3)", "group": "resource", "lat": -56.468573743472156, "lon": 66.8222123273175, "alt_km": 619.8417097596657, "timestamp": "2025-12-08T10:52:02.606506+00:00", "meta": {"OBJECT_NAME": "WORLDVIEW-3 (WV-3)", "OBJECT_ID": "2014-048A", "EPOCH": "2025-12-07T22:11:31.719552", "MEAN_MOTION": 14.85492772, "ECCENTRICITY": 0.00044154, "INCLINATION": 97.8618, "RA_OF_ASC_NODE": 54.2656, "ARG_OF_PERICENTER": 200.9038, "MEAN_ANOMALY": 159.1997, "EPHEMERIS_TYPE": 0, "CLASSIFICATION_TYPE": "U", "NORAD_CAT_ID": 40115, "ELEMENT_SET_NO": 999, "REV_AT_EPOCH": 61352, "BSTAR": 0.0002014365, "MEAN_MOTION_DOT": 1.685e-05, "MEAN_MOTION_DDOT": 0}, "tle": {"line1": "1 40115U 14048A   25341.92467268  .00001685  00000+0  20144-3 0  9990", "line2": "2 40115  97.8618  54.2656 0004415 200.9038 159.1997 14.85492772613523"}}, "geometry": {"type": "Point", "coordinates": [66.8222123273175, -56.468573743472156]}}, {"type": "Feature", "properties": {"norad_id": 40118, "name": "GAOFEN-2", "group": "resource", "lat": -15.627969527589395, "lon": -140.6520554535154, "alt_km": 630.2760035234887, "timestamp": "2025-12-08T10:52:02.606516+00:00", "meta": {"OBJECT_NAME": "GAOFEN-2", "OBJECT_ID": "2014-049A", "EPOCH": "2025-12-07T22:38:00.428064", "MEAN_MOTION": 14.80594886, "ECCENTRICITY": 0.00084176, "INCLINATION": 98.0392, "RA_OF_ASC_NODE": 41.1031, "ARG_OF_PERICENTER": 126.8081, "MEAN_ANOMALY": 233.3904, "EPHEMERIS_TYPE": 0, "CLASSIFICATION_TYPE": "U", "NORAD_CAT_ID": 40118, "ELEMENT_SET_NO": 999, "REV_AT_EPOCH": 61093, "BSTAR": 0.0001861634, "MEAN_MOTION_DOT": 1.375e-05, "MEAN_MOTION_DDOT": 0}, "tle": {"line1": "1 40118U 14049A   25341.94306051  .00001375  00000+0  18616-3 0  9995", "line2": "2 40118  98.0392  41.1031 0008417 126.8081 233.3904 14.80594886610939"}}, "geometry": {"type": "Point", "coordinates": [-140.6520554535154, -15.627969527589395]}}, {"type": "Feature", "properties": {"norad_id": 40143, "name": "YAOGAN-21", "group": "resource", "lat": -35.96593796679831, "lon": -159.29340136774596, "alt_km": 507.9196720946038, "timestamp": "2025-12-08T10:52:02.606527+00:00", "meta": {"OBJECT_NAME": "YAOGAN-21", "OBJECT_ID": "2014-053A", "EPOCH": "2025-12-07T22:53:17.788704", "MEAN_MOTION": 15.23590538, "ECCENTRICITY": 0.00100165, "INCLINATION": 97.1757, "RA_OF_ASC_NODE": 25.4745, "ARG_OF_PERICENTER": 56.4153, "MEAN_ANOMALY": 303.804, "EPHEMERIS_TYPE": 0, "CLASSIFICATION_TYPE": "U", "NORAD_CAT_ID": 40143, "ELEMENT_SET_NO": 999, "REV_AT_EPOCH": 62581, "BSTAR": 0.00035911215, "MEAN_MOTION_DOT": 8.54e-05, "MEAN_MOTION_DDOT": 0}, "tle": {"line1": "1 40143U 14053A   25341.95367811  .00008540  00000+0  35911-3 0  9998", "line2": "2 40143  97.1757  25.4745 0010016  56.4153 303.8040 15.23590538625810"}}, "geometry": {"type": "Point", "coordinates": [-159.29340136774596, -35.96593796679831]}}, {"type": "Feature", "properties": {"norad_id": 40275, "name": "YAOGAN-22", "group": "resource", "lat": 17.129499995954546, "lon": 122.45764501898735, "alt_km": 1204.2810299252997, "timestamp": "2025-12-08T10:52:02.606537+00:00", "meta": {"OBJECT_NAME": "YAOGAN-22", "OBJECT_ID": "2014-063A", "EPOCH": "2025-12-07T22:00:08.226432", "MEAN_MOTION": 13.15522439, "ECCENTRICITY": 0.00059186, "INCLINATION": 100.7419, "RA_OF_ASC_NODE": 125.2682, "ARG_OF_PERICENTER": 259.8857, "MEAN_ANOMALY": 100.1586, "EPHEMERIS_TYPE": 0, "CLASSIFICATION_TYPE": "U", "NORAD_CAT_ID": 40275, "ELEMENT_SET_NO": 999, "REV_AT_EPOCH": 53466, "BSTAR": 6.8157695e-05, "MEAN_MOTION_DOT": -2.1e-07, "MEAN_MOTION_DDOT": 0}, "tle": {"line1": "1 40275U 14063A   25341.91676188 -.00000021  00000+0  68158-4 0  9998", "line2": "2 40275 100.7419 125.2682 0005918 259.8857 100.1586 13.15522439534665"}}, "geometry": {"type": "Point", "coordinates": [122.45764501898735, 17.129499995954546]}}, {"type": "Feature", "properties": {"norad_id": 40298, "name": "ASNARO", "group": "resource", "lat": -30.971045112313888, "lon": 62.95724519939549, "alt_km": 517.4588490732849, "timestamp": "2025-12-08T10:52:02.606547+00:00", "meta": {"OBJECT_NAME": "ASNARO", "OBJECT_ID": "2014-070A", "EPOCH": "2025-12-07T22:21:35.059392", "MEAN_MOTION": 15.1934264, "ECCENTRICITY": 0.00053908, "INCLINATION": 97.3655, "RA_OF_ASC_NODE": 57.9963, "ARG_OF_PERICENTER": 135.2626, "MEAN_ANOMALY": 224.9044, "EPHEMERIS_TYPE": 0, "CLASSIFICATION_TYPE": "U", "NORAD_CAT_ID": 40298, "ELEMENT_SET_NO": 999, "REV_AT_EPOCH": 61496, "BSTAR": 0.00064936912, "MEAN_MOTION_DOT": 0.00013676, "MEAN_MOTION_DDOT": 0}, "tle": {"line1": "1 40298U 14070A   25341.93165578  .00013676  00000+0  64937-3 0  9998", "line2": "2 40298  97.3655  57.9963 0005390 135.2626 224.9044 15.19342640614967"}}, "geometry": {"type": "Point", "coordinates": [62.95724519939549, -30.971045112313888]}}, {"type": "Feature", "properties": {"norad_id": 40310, "name": "YAOGAN-24", "group": "resource", "lat": -66.41876433613466, "lon": -85.57481968675533, "alt_km": 649.8399267939594, "timestamp": "2025-12-08T10:52:02.606558+00:00", "meta": {"OBJECT_NAME": "YAOGAN-24", "OBJECT_ID": "2014-072A", "EPOCH": "2025-12-07T22:21:42.393024", "MEAN_MOTION": 14.76160707, "ECCENTRICITY": 0.00145272, "INCLINATION": 98.1225, "RA_OF_ASC_NODE": 112.9997, "ARG_OF_PERICENTER": 152.9186, "MEAN_ANOMALY": 207.2784, "EPHEMERIS_TYPE": 0, "CLASSIFICATION_TYPE": "U", "NORAD_CAT_ID": 40310, "ELEMENT_SET_NO": 999, "REV_AT_EPOCH": 59550, "BSTAR": 0.00024422404, "MEAN_MOTION_DOT": 1.638e-05, "MEAN_MOTION_DDOT": 0}, "tle": {"line1": "1 40310U 14072A   25341.93174066  .00001638  00000+0  24422-3 0  9997", "line2": "2 40310  98.1225 112.9997 0014527 152.9186 207.2784 14.76160707595509"}}, "geometry": {"type": "Point", "coordinates": [-85.57481968675533, -66.41876433613466]}}, {"type": "Feature", "properties": {"norad_id": 40336, "name": "CBERS 4", "group": "resource", "lat": -72.54199312764428, "lon": -167.15663659823173, "alt_km": 781.4408317015368, "timestamp": "2025-12-08T10:52:02.606568+00:00", "meta": {"OBJECT_NAME": "CBERS 4", "OBJECT_ID": "2014-079A", "EPOCH": "2025-12-07T21:58:30.885600", "MEAN_MOTION": 14.35514867, "ECCENTRICITY": 0.00015401, "INCLINATION": 98.3317, "RA_OF_ASC_NODE": 40.0975, "ARG_OF_PERICENTER": 119.894, "MEAN_ANOMALY": 240.2399, "EPHEMERIS_TYPE": 0, "CLASSIFICATION_TYPE": "U", "NORAD_CAT_ID": 40336, "ELEMENT_SET_NO": 999, "REV_AT_EPOCH": 57651, "BSTAR": 0.0001036317, "MEAN_MOTION_DOT": 2.56e-06, "MEAN_MOTION_DDOT": 0}, "tle": {"line1": "1 40336U 14079A   25341.91563525  .00000256  00000+0  10363-3 0  9996", "line2": "2 40336  98.3317  40.0975 0001540 119.8940 240.2399 14.35514867576513"}}, "geometry": {"type": "Point", "coordinates": [-167.15663659823173, -72.54199312764428]}}, {"type": "Feature", "properties": {"norad_id": 40362, "name": "YAOGAN-26", "group": "resource", "lat": 50.86305731569536, "lon": -25.485943146122743, "alt_km": 439.6835114318301, "timestamp": "2025-12-08T10:52:02.606580+00:00", "meta": {"OBJECT_NAME": "YAOGAN-26", "OBJECT_ID": "2014-088A", "EPOCH": "2025-12-07T23:43:19.858656", "MEAN_MOTION": 15.39048835, "ECCENTRICITY": 0.00067799, "INCLINATION": 97.0643, "RA_OF_ASC_NODE": 342.8321, "ARG_OF_PERICENTER": 43.2491, "MEAN_ANOMALY": 316.9287, "EPHEMERIS_TYPE": 0, "CLASSIFICATION_TYPE": "U", "NORAD_CAT_ID": 40362, "ELEMENT_SET_NO": 999, "REV_AT_EPOCH": 60821, "BSTAR": 0.0005894594, "MEAN_MOTION_DOT": 0.00022775, "MEAN_MOTION_DDOT": 0}, "tle": {"line1": "1 40362U 14088A   25341.98842429  .00022775  00000+0  58946-3 0  9994", "line2": "2 40362  97.0643 342.8321 0006779  43.2491 316.9287 15.39048835608210"}}, "geometry": {"type": "Point", "coordinates": [-25.485943146122743, 50.86305731569536]}}, {"type": "Feature", "properties": {"norad_id": 40376, "name": "SMAP", "group": "resource", "lat": 28.19017794373039, "lon": -17.1551504413126, "alt_km": 680.7332672875082, "timestamp": "2025-12-08T10:52:02.606591+00:00", "meta": {"OBJECT_NAME": "SMAP", "OBJECT_ID": "2015-003A", "EPOCH": "2025-12-07T23:15:00.331776", "MEAN_MOTION": 14.63335214, "ECCENTRICITY": 0.00012042, "INCLINATION": 98.129, "RA_OF_ASC_NODE": 346.7614, "ARG_OF_PERICENTER": 88.013, "MEAN_ANOMALY": 272.121, "EPHEMERIS_TYPE": 0, "CLASSIFICATION_TYPE": "U", "NORAD_CAT_ID": 40376, "ELEMENT_SET_NO": 999, "REV_AT_EPOCH": 57965, "BSTAR": 0.00018917284, "MEAN_MOTION_DOT": 9.3e-06, "MEAN_MOTION_DDOT": 0}, "tle": {"line1": "1 40376U 15003A   25341.96875384  .00000930  00000+0  18917-3 0  9994", "line2": "2 40376  98.1290 346.7614 0001204  88.0130 272.1210 14.63335214579658"}}, "geometry": {"type": "Point", "coordinates": [-17.1551504413126, 28.19017794373039]}}, {"type": "Feature", "properties": {"norad_id": 40536, "name": "KOMPSAT-3A", "group": "resource", "lat": -77.24622856009304, "lon": -6.845848159184095, "alt_km": 444.96769719622534, "timestamp": "2025-12-08T10:52:02.606601+00:00", "meta": {"OBJECT_NAME": "KOMPSAT-3A", "OBJECT_ID": "2015-014A", "EPOCH": "2025-12-07T22:46:01.801344", "MEAN_MOTION": 15.43685349, "ECCENTRICITY": 0.00043711, "INCLINATION": 97.6788, "RA_OF_ASC_NODE": 316.0313, "ARG_OF_PERICENTER": 136.8052, "MEAN_ANOMALY": 223.3539, "EPHEMERIS_TYPE": 0, "CLASSIFICATION_TYPE": "U", "NORAD_CAT_ID": 40536, "ELEMENT_SET_NO": 999, "REV_AT_EPOCH": 59221, "BSTAR": 0.00050638632, "MEAN_MOTION_DOT": 0.00022788, "MEAN_MOTION_DDOT": 0}, "tle": {"line1": "1 40536U 15014A   25341.94863196  .00022788  00000+0  50639-3 0  9992", "line2": "2 40536  97.6788 316.0313 0004371 136.8052 223.3539 15.43685349592216"}}, "geometry": {"type": "Point", "coordinates": [-6.845848159184095, -77.24622856009304]}}]}